[{"OBJECT_NAME":"STARLINK-3203","OBJECT_ID":"2021-115AP","EPOCH":"2026-03-09T10:13:09.926112","MEAN_MOTION":15.08834749,"ECCENTRICITY":0.00013882,"INCLINATION":53.2181,"RA_OF_ASC_NODE":140.3041,"ARG_OF_PERICENTER":85.9447,"MEAN_ANOMALY":274.1704,"EPHEMERIS_TYPE":0,"CLASSIFICATION_TYPE":"U","NORAD_CAT_ID":49761,"ELEMENT_SET_NO":999,"REV_AT_EPOCH":23563,"BSTAR":-3.6623807e-5,"MEAN_MOTION_DOT":-8.71e-6,"MEAN_MOTION_DDOT":0},{"OBJECT_NAME":"CZ-6A DEB","OBJECT_ID":"2024-140JQ","EPOCH":"2026-03-09T16:05:49.477056","MEAN_MOTION":15.15394204,"ECCENTRICITY":0.00800164,"INCLINATION":89.0638,"RA_OF_ASC_NODE":284.0631,"ARG_OF_PERICENTER":105.771,"MEAN_ANOMALY":255.2376,"EPHEMERIS_TYPE":0,"CLASSIFICATION_TYPE":"U","NORAD_CAT_ID":60861,"ELEMENT_SET_NO":999,"REV_AT_EPOCH":8511,"BSTAR":0.0025246282,"MEAN_MOTION_DOT":0.00051962,"MEAN_MOTION_DDOT":0}]
